[{"OBJECT_NAME":"STARLINK-35027","OBJECT_ID":"2025-195J","EPOCH":"2026-03-09T18:16:23.045376","MEAN_MOTION":15.3020009,"ECCENTRICITY":0.00014252,"INCLINATION":53.1585,"RA_OF_ASC_NODE":257.9192,"ARG_OF_PERICENTER":129.1646,"MEAN_ANOMALY":230.9482,"EPHEMERIS_TYPE":0,"CLASSIFICATION_TYPE":"U","NORAD_CAT_ID":65466,"ELEMENT_SET_NO":999,"REV_AT_EPOCH":3000,"BSTAR":0.00042683475,"MEAN_MOTION_DOT":0.00012303,"MEAN_MOTION_DDOT":0},{"OBJECT_NAME":"TITAN 34B R\/B","OBJECT_ID":"1975-017B","EPOCH":"2026-03-09T08:25:18.142752","MEAN_MOTION":5.16367451,"ECCENTRICITY":0.53194784,"INCLINATION":63.2596,"RA_OF_ASC_NODE":209.8058,"ARG_OF_PERICENTER":272.6687,"MEAN_ANOMALY":30.5083,"EPHEMERIS_TYPE":0,"CLASSIFICATION_TYPE":"U","NORAD_CAT_ID":7688,"ELEMENT_SET_NO":999,"REV_AT_EPOCH":11105,"BSTAR":0.001158361,"MEAN_MOTION_DOT":0.00019675,"MEAN_MOTION_DDOT":0}]
